Satellite: METEOR-M
Catalog number: 35865
Epoch time:      09328.49334562
Element set:      62
Inclination:      098.7894 deg
RA of node:       018.4477 deg
Eccentricity:    0.0001906
Arg of perigee:   216.1521 deg
Mean anomaly:     143.9505 deg
Mean motion:   14.21827542 rev/day
Decay rate:       1.76e-06 rev/day^2
Epoch rev:             963
Checksum:              308

/EX

From ray.hoad at mypbmail.com  Tue Nov 24 19:41:50 2009
From: ray.hoad at mypbmail.com (Ray Hoad)
Date: Tue, 24 Nov 2009 21:41:50 -0600
Subject: [keps]  orb09328.2l.amsat
Message-ID: <45973748F4BB47B4B978F14535BF89A0@SPINMOD1>

SB KEPS @ AMSAT  $ORB09328.N
2Line Orbital Elements 09328.AMSAT

HR AMSAT ORBITAL ELEMENTS FOR AMATEUR SATELLITES IN NASA FORMAT
FROM WA5QGD FORT WORTH,TX November 24, 2009
Send Subscribe/unsubscribe to KEPS at http://www.amsat.org/mailman/listinfo/keps
BID: ORB09328.N

DECODE 2-LINE ELSETS WITH THE FOLLOWING KEY:
1 AAAAAU 00  0  0 BBBBB.BBBBBBBB  .CCCCCCCC  00000-0  00000-0 0  DDDZ
2 AAAAA EEE.EEEE FFF.FFFF GGGGGGG HHH.HHHH III.IIII JJ.JJJJJJJJKKKKKZ
KEY: A-CATALOGNUM B-EPOCHTIME C-DECAY D-ELSETNUM E-INCLINATION F-RAAN
G-ECCENTRICITY H-ARGPERIGEE I-MNANOM J-MNMOTION K-ORBITNUM Z-CHECKSUM

TO ALL RADIO AMATEURS BT

AO-07
1 07530U 74089B   09327.62165578 -.00000027  00000-0  10000-3 0 06388
2 07530 101.4154 346.3792 0011976 317.4829 042.5315 12.53577134602696
FO-29
1 24278U 96046B   09327.59097891 -.00000045  00000-0 -72917-5 0 01968
2 24278 098.5221 180.0030 0350080 297.2677 059.3206 13.52946364655307
SO-33
1 25509U 98061B   09327.83768203 -.00000035  00000-0 -20629-4 0  5925
2 25509 031.4351 229.7369 0354844 294.3279 062.0681 14.28270330578678
RS-22
1 27939U 03042A   09327.65564027  .00000139  00000-0  35655-4 0  9457
2 27939 097.9167 196.4944 0013703 353.7760 006.3275 14.63359585328895
VO-52
1 28650U 05017B   09327.90515546 -.00000630  00000-0 -73041-4 0  3703
2 28650 097.7239 024.0294 0026133 226.6331 133.3147 14.81643334246291
SO-67
1 35870U 09049F   09328.82567255  .00000602  00000-0  28623-4 0  2027
2 35870 097.3627 017.5904 0013068 059.1515 062.5965 15.22864574 10366
UO-11
1 14781U 84021B   09327.73185765  .00000045  00000-0  13150-4 0  1129
2 14781 098.0860 013.5149 0008907 176.2963 183.8288 14.79748918381429
AO-16
1 20439U 90005D   09327.46253054 -.00000010  00000-0  11614-4 0 07584
2 20439 098.3033 288.8049 0011838 059.8414 300.3944 14.31839780035945
LO-19
1 20442U 90005G   09327.63325260  .00000070  00000-0  41144-4 0 06705
2 20442 098.2660 295.6060 0012696 055.6709 304.5685 14.32074135036133
AO-27
1 22825U 93061C   09327.61872965 -.00000035  00000-0  30623-5 0 03928
2 22825 098.4599 276.1849 0008926 149.6993 210.4693 14.29278816842689
IO-26
1 22826U 93061D   09327.65078507 -.00000012  00000-0  12057-4 0 01296
2 22826 098.4525 276.8980 0009319 145.2685 214.9105 14.29532258842791
GO-32
1 25397U 98043D   09327.73795430 -.00000125  00000-0 -37280-4 0 00488
2 25397 098.3178 341.4710 0001870 121.0244 239.1119 14.23166289590826
NO-44
1 26931U 01043C   09327.58823580 -.00000153  00000-0 -27411-4 0  3207
2 26931 067.0521 013.6779 0007061 270.2773 089.7525 14.29572983425365
SO-50
1 27607U 02058C   09327.29044255  .00000013  00000-0  23941-4 0 00403
2 27607 064.5591 261.8704 0048195 163.3135 196.9566 14.71476275372087
CO-55
1 27844U 03031E   09327.65652323  .00000056  00000-0  46055-4 0  7189
2 27844 098.7125 334.5764 0010607 046.7892 313.4161 14.20668537331908
CO-57
1 27848U 03031J   09327.51560505  .00000034  00000-0  36104-4 0 06716
2 27848 098.7168 333.5056 0010591 051.1375 309.0739 14.20466464331840
AO-51
1 28375U 04025K   09327.56898436  .00000022  00000-0  19349-4 0  5402
2 28375 098.0534 327.9052 0084864 001.9227 358.2276 14.40659972283907
CO-56
1 28941U 06005C   09297.68475575  .14491492  29743-5  25760-3 0  5565
2 28941 098.0955 138.9518 0011688 319.8691 040.7485 16.46998778207909
GENESAT1
1 29655U 06058C   09327.96948818  .00027246  00000-0  22056-3 0 08729
2 29655 040.0217 259.4454 0005834 274.0815 085.9343 15.70057212167559
CP3
1 31129U 07012N   09328.71816018  .00000175  00000-0  50760-4 0  3483
2 31129 097.9682 013.9369 0103010 147.4137 213.3461 14.52184470138189
CO-65
1 32785U 08021C   09327.18076277  .00000083  00000-0  17367-4 0 05361
2 32785 097.9271 029.6681 0014066 232.9176 127.0748 14.81545455084981
KKS-1
1 33493U 09002B   09328.72597209  .00000463  00000-0  66956-4 0  9704
2 33493 098.0698 081.7690 0021237 083.1652 277.1984 14.80783151 45224
SOHLA-1
1 33496U 09002E   09328.74756398  .00000075  00000-0  20953-4 0  9341
2 33496 098.0489 075.6536 0007453 125.9917 234.1990 14.69456712 44854
NOAA-10
1 16969U 86073A   09327.55902532 -.00000134  00000-0 -36676-4 0 08460
2 16969 098.6784 353.2384 0013068 091.9132 268.3554 14.27399194206242
NOAA-11
1 19531U 88089A   09327.31800167 -.00000043  00000-0  48774-6 0 08622
2 19531 098.7798 054.7796 0011995 018.1713 341.9889 14.14907067092027
NOAA-12
1 21263U 91032A   09327.78045695  .00000034  00000-0  33398-4 0 03467
2 21263 098.7702 335.9233 0013079 046.1831 314.0414 14.25603209963131
MET-3/5
1 21655U 91056A   09327.91216663  .00000051  00000-0  10000-3 0 06891
2 21655 082.5527 093.6687 0014089 137.9645 222.2559 13.17021632878653
MET-2/21
1 22782U 93055A   09327.70364962  .00000067  00000-0  47592-4 0  6262
2 22782 082.5493 055.4685 0020884 258.6465 101.2347 13.83642196819666
OKEAN-4
1 23317U 94066A   09327.76987870  .00000012  00000-0 -14669-5 0 00822
2 23317 082.5395 185.5655 0021384 195.3597 164.6977 14.82739403816019
NOAA-14
1 23455U 94089A   09327.76235000  .00000231  00000-0  14548-3 0 08397
2 23455 098.8966 044.7776 0010218 099.0751 261.1576 14.13774942768477
NOAA-15
1 25338U 98030A   09327.60658090 -.00000106  00000-0 -27064-4 0 01664
2 25338 098.6001 313.4468 0009966 317.2077 042.8307 14.24793193599474
RESURS
1 25394U 98043A   09328.62401315 -.00000011  00000-0  12795-4 0  3659
2 25394 098.3218 352.6857 0002296 090.7643 269.3803 14.24190928591231
FENGYUN1
1 25730U 99025A   09328.81471634  .00001394  00000-0  84141-3 0  9086
2 25730 098.7708 294.2828 0022275 116.9188 243.4238 14.08090804542927
OKEAN-0
1 25860U 99039A   09328.76175789  .00000042  00000-0  13759-4 0  8458
2 25860 097.8063 303.7389 0001688 052.4575 307.6786 14.73598933556791
NOAA-16
1 26536U 00055A   09327.59798902 -.00000147  00000-0 -54004-4 0 06462
2 26536 099.1783 335.1464 0010530 190.1863 169.9105 14.12537440472807
NOAA-17
1 27453U 02032A   09327.77257928  .00000101  00000-0  61891-4 0 06398
2 27453 098.4627 021.1723 0011933 022.9993 337.1732 14.24109133385466
NOAA-18
1 28654U 05018A   09327.77771450 -.00000040  00000-0  27386-5 0 01255
2 28654 098.9263 269.9018 0013517 273.1613 086.8030 14.11303332232462
NOAA-19
1 33591U 09005A   09327.79212678 -.00000138  00000-0 -52882-4 0 03311
2 33591 098.7660 269.5291 0014467 147.9660 212.2400 14.11002235040945
HUBBLE
1 20580U 90037B   09327.91023735  .00000363  00000-0  15029-4 0  4803
2 20580 028.4678 139.8263 0003384 179.5615 180.4987 15.00857635873876
ISS
1 25544U 98067A   09329.02698647  .00075692  00000-0  47620-3 0   481
2 25544 051.6439 200.4034 0007446 015.9063 137.6737 15.75986051631290
CO-58
1 28895U 05043F   09327.63356092  .00000172  00000-0  45466-4 0 04500
2 28895 098.0374 213.5854 0017419 206.7113 153.3208 14.59817515216990
FALCON
1 30776U 07006E   09327.95790901  .00000521  00000-0  40599-4 0 07107
2 30776 035.4335 209.9753 0001425 263.4685 096.5871 15.03374739149157
MAST
1 31126U 07012K   09327.19178775  .00000068  00000-0  25678-4 0  7386
2 31126 097.9681 014.5389 0094959 145.7312 215.0063 14.53532377138137
CAPE1
1 31130U 07012P   09328.69640018  .00000027  00000-0  16774-4 0  7507
2 31130 097.9697 013.8019 0103179 147.7488 213.0070 14.52107866137980
COMPASS
1 32787U 08021E   09327.21053178  .00000568  00000-0  78764-4 0 05290
2 32787 097.9242 029.5311 0014902 233.8945 126.0881 14.81699850084990
AAUSAT2
1 32788U 08021F   09327.16499092  .00000601  00000-0  82721-4 0 05245
2 32788 097.9242 029.5716 0014377 234.2419 125.7454 14.81829056084992
DO-64
1 32789U 08021G   09328.73878341  .00000568  00000-0  78534-4 0  5359
2 32789 097.9282 031.4033 0014909 227.8817 132.1129 14.81864969 85222
CO-66
1 32791U 08021J   09327.20478607  .00000217  00000-0  34387-4 0 05207
2 32791 097.9238 029.5552 0015151 233.4762 126.5051 14.81514118084950
RS-30
1 32953U 08025A   09327.63961560  .00000010  00000-0  00000 0 0  4607
2 32953 082.4999 157.4854 0018660 189.3344 170.7391 12.43003197 68206
TACSAT-3
1 35001U 09028A   09327.56543958  .00004633  00000-0  11942-3 0 01699
2 35001 040.4557 007.1160 0024622 269.8223 089.9769 15.39624519028912
PHARMSAT
1 35002U 09028B   09327.53821732  .00003993  00000-0  10112-3 0 01513
2 35002 040.4695 006.2022 0027417 273.3049 086.4629 15.40342671028919
HAWKSAT1
1 35003U 09028C   09327.45713555  .00007539  00000-0  17898-3 0 01628
2 35003 040.4617 005.4273 0027178 277.0447 082.7276 15.41448017028920
CP6
1 35004U 09028D   09327.51600458  .00008738  00000-0  20542-3 0  1456
2 35004 040.4626 005.0013 0026453 277.8060 081.9748 15.41622851 28928
AEROCUB3
1 35005U 09028E   09327.79973996  .00008272  00000-0  19637-3 0 01587
2 35005 040.4753 003.8484 0026780 275.9304 083.8472 15.41374417028962
DRAGNSAT
1 35690U 09038B   09328.09687850  .00058393  00000-0  21222-3 0  1170
2 35690 051.6368 197.3385 0006133 159.4534 200.6718 15.87895713 18472
POLLUX
1 35693U 09038E   09327.33248859  .00050356  00000-0  19569-3 0  1229
2 35693 051.6386 202.0006 0005056 123.1813 236.9782 15.86600595 18317
CASTOR
1 35694U 09038F   09328.12493400  .00023561  00000-0  10922-3 0  1112
2 35694 051.6398 199.0805 0005072 117.7435 242.4115 15.83321225 18421
METEOR-M
1 35865U 09049A   09328.49334562  .00000176  00000-0  10000-3 0   626
2 35865 098.7894 018.4477 0001906 216.1521 143.9505 14.21827542  9630
/EX

From ray.hoad at mypbmail.com  Tue Nov 24 19:46:13 2009
From: ray.hoad at mypbmail.com (Ray Hoad)
Date: Tue, 24 Nov 2009 21:46:13 -0600
Subject: [keps]  I'm Back! - UO-11 Active Again
Message-ID: <ED2191B9ED8A4D9D83A54CF58C47E42B@SPINMOD1>

An old friend calls us again. I have added UO-11 (Cat # 14781) back in the KEP list.

UO-11 is active again.
Listen on or about 145.825, 435.025, or 2401.5 mHz.

From ray.hoad at mypbmail.com  Thu Dec  3 20:35:42 2009
From: ray.hoad at mypbmail.com (Ray Hoad)
Date: Thu, 3 Dec 2009 22:35:42 -0600
Subject: [keps]  orb09337.amsat
Message-ID: <647872D6FE9442B2A528FDC66125E111@SPINMOD1>

SB KEPS @ AMSAT  $ORB09337.O
Orbital Elements  09337.OSCAR

HR AMSAT ORBITAL ELEMENTS FOR OSCAR SATELLITES
FROM WA5QGD FORT WORTH,TX December 3, 2009
Send Subscribe/unsubscribe to KEPS at http://www.amsat.org/mailman/listinfo/keps
BID: ORB09337.O
TO ALL RADIO AMATEURS BT

